NORAD_CAT_ID,OBJECT_NAME,OBJECT_TYPE,EPOCH,MEAN_MOTION,ECCENTRICITY,INCLINATION,RA_OF_ASC_NODE,ARG_OF_PERICENTER,MEAN_ANOMALY,BSTAR,MEAN_MOTION_DOT,MEAN_MOTION_DDOT,TLE_LINE0,TLE_LINE1,TLE_LINE2,SEMIMAJOR_AXIS,PERIOD,APOGEE,PERIGEE,DECAYED
53636.0,STARLINK-4586,PAYLOAD,2024-08-12 10:15:36,15.08921625,0.0001504,53.2165,281.9139,86.575,273.5414,0.001425,0.00022514,0.0,0 STARLINK-4586,1 53636U 22104BA  24225.42751103  .00022514  00000-0  14250-2 0  9998,2 53636  53.2165 281.9139 0001504  86.5750 273.5414 15.08921625109534,6917.631,95.432,540.536,538.455,0.0
53636.0,STARLINK-4586,PAYLOAD,2024-08-12 15:01:44,15.08946838,0.0001528,53.2172,281.0233,76.6586,283.4577,0.0015918,0.00025211,0.0,0 STARLINK-4586,1 53636U 22104BA  24225.62620665  .00025211  00000-0  15918-2 0  9997,2 53636  53.2172 281.0233 0001528  76.6586 283.4577 15.08946838108544,6917.554,95.431,540.476,538.362,0.0
53636.0,STARLINK-4586,PAYLOAD,2024-08-13 13:17:13,15.08859482,0.0001622,53.217,276.8588,83.0319,277.0857,0.0014535,0.00022933,0.0,0 STARLINK-4586,1 53636U 22104BA  24226.55362721  .00022933  00000-0  14535-2 0  9998,2 53636  53.2170 276.8588 0001622  83.0319 277.0857 15.08859482108681,6917.821,95.436,540.808,538.564,0.0
53636.0,STARLINK-4586,PAYLOAD,2024-08-14 03:35:41,15.08884965,0.0001752,53.2161,274.1809,85.8896,274.2296,0.0014084,0.00022225,0.0,0 STARLINK-4586,1 53636U 22104BA  24227.14978133  .00022225  00000-0  14084-2 0  9997,2 53636  53.2161 274.1809 0001752  85.8896 274.2296 15.08884965108772,6917.743,95.435,540.82,538.396,0.0
53636.0,STARLINK-4586,PAYLOAD,2024-08-14 09:57:13,15.08889956,0.0001644,53.2152,272.9934,77.0887,283.0288,0.0013733,0.00021666,0.0,0 STARLINK-4586,1 53636U 22104BA  24227.41474142  .00021666  00000-0  13733-2 0  9996,2 53636  53.2152 272.9934 0001644  77.0887 283.0288 15.08889956108819,6917.728,95.434,540.73,538.455,0.0
53636.0,STARLINK-4586,PAYLOAD,2024-08-15 09:48:00,15.08880899,0.0001774,53.2159,268.5332,65.0607,295.0569,0.0017592,0.00027852,0.0,0 STARLINK-4586,1 53636U 22104BA  24228.40833726  .00027852  00000-0  17592-2 0  9993,2 53636  53.2159 268.5332 0001774  65.0607 295.0569 15.08880899109981,6917.755,95.435,540.848,538.393,0.0
53636.0,STARLINK-4586,PAYLOAD,2024-08-15 19:20:18,15.08893706,0.000172,53.2148,266.7486,61.9831,298.1335,0.0017095,0.00027064,0.0,0 STARLINK-4586,1 53636U 22104BA  24228.80577357  .00027064  00000-0  17095-2 0  9995,2 53636  53.2148 266.7486 0001720  61.9831 298.1335 15.08893706109025,6917.716,95.434,540.771,538.391,0.0
53636.0,STARLINK-4586,PAYLOAD,2024-08-16 08:03:24,15.08895304,0.0001885,53.2167,264.3725,70.951,289.1686,0.0016528,0.00026154,0.0,0 STARLINK-4586,1 53636U 22104BA  24229.33569616  .00026154  00000-0  16528-2 0  9992,2 53636  53.2167 264.3725 0001885  70.9510 289.1686 15.08895304109106,6917.711,95.434,540.88,538.272,0.0
53636.0,STARLINK-4586,PAYLOAD,2024-08-17 11:04:57,15.08895198,0.0001687,53.2151,259.3162,69.0929,291.0244,0.001461,0.00023076,0.0,0 STARLINK-4586,1 53636U 22104BA  24230.46177958  .00023076  00000-0  14610-2 0  9992,2 53636  53.2151 259.3162 0001687  69.0929 291.0244 15.08895198109272,6917.712,95.434,540.744,538.41,0.0
53636.0,STARLINK-4586,PAYLOAD,2024-08-18 01:23:25,15.08903759,0.0001688,53.2164,256.639,79.5297,280.5885,0.0015627,0.00024713,0.0,0 STARLINK-4586,1 53636U 22104BA  24231.05792918  .00024713  00000-0  15627-2 0  9995,2 53636  53.2164 256.6390 0001688  79.5297 280.5885 15.08903759109361,6917.686,95.434,540.718,538.383,0.0
53636.0,STARLINK-4586,PAYLOAD,2024-08-18 06:09:34,15.08907625,0.0001836,53.216,255.7446,66.3347,293.7838,0.0015077,0.00023833,0.0,0 STARLINK-4586,1 53636U 22104BA  24231.25664932  .00023833  00000-0  15077-2 0  9992,2 53636  53.2160 255.7446 0001836  66.3347 293.7838 15.08907625110412,6917.674,95.433,540.809,538.269,0.0
53636.0,STARLINK-4586,PAYLOAD,2024-08-18 10:55:43,15.08914142,0.0001594,53.2153,254.8534,74.632,285.4848,0.001447,0.00022863,0.0,0 STARLINK-4586,1 53636U 22104BA  24231.45536567  .00022863  00000-0  14470-2 0  9994,2 53636  53.2153 254.8534 0001594  74.6320 285.4848 15.08914142109426,6917.654,95.433,540.621,538.416,0.0
53636.0,STARLINK-4586,PAYLOAD,2024-08-19 01:14:12,15.08888878,0.0001415,53.2157,252.176,74.7951,285.3197,0.0016699,0.00026424,0.0,0 STARLINK-4586,1 53636U 22104BA  24232.05152920  .00026424  00000-0  16699-2 0  9990,2 53636  53.2157 252.1760 0001415  74.7951 285.3197 15.08888878109517,6917.731,95.434,540.575,538.617,0.0
53636.0,STARLINK-4586,PAYLOAD,2024-08-19 07:35:45,15.08887044,0.0001727,53.2161,250.9881,74.0811,286.0371,0.0015349,0.00024256,0.0,0 STARLINK-4586,1 53636U 22104BA  24232.31649656  .00024256  00000-0  15349-2 0  9998,2 53636  53.2161 250.9881 0001727  74.0811 286.0371 15.08887044109556,6917.737,95.435,540.796,538.407,0.0
53636.0,STARLINK-4586,PAYLOAD,2024-08-19 20:18:50,15.0889608,0.000164,53.2154,248.6063,77.4043,282.7133,0.0015084,0.00023837,0.0,0 STARLINK-4586,1 53636U 22104BA  24232.84641284  .00023837  00000-0  15084-2 0  9995,2 53636  53.2154 248.6063 0001640  77.4043 282.7133 15.08896080109630,6917.709,95.434,540.708,538.439,0.0
53636.0,STARLINK-4586,PAYLOAD,2024-08-20 07:26:31,15.0890092,0.0001746,53.2149,246.5269,79.1319,280.9869,0.0015142,0.00023933,0.0,0 STARLINK-4586,1 53636U 22104BA  24233.31008812  .00023933  00000-0  15142-2 0  9994,2 53636  53.2149 246.5269 0001746  79.1319 280.9869 15.08900920109704,6917.694,95.434,540.767,538.351,0.0
53636.0,STARLINK-4586,PAYLOAD,2024-08-21 04:06:32,15.08887797,0.0001746,53.2147,242.6628,81.1158,279.0032,0.0016139,0.00025524,0.0,0 STARLINK-4586,1 53636U 22104BA  24234.17121190  .00025524  00000-0  16139-2 0  9999,2 53636  53.2147 242.6628 0001746  81.1158 279.0032 15.08887797109833,6917.734,95.435,540.807,538.391,0.0
53636.0,STARLINK-4586,PAYLOAD,2024-08-21 07:17:19,15.08883449,0.0001595,53.2149,242.0682,78.312,281.8051,0.0015116,0.0002388,0.0,0 STARLINK-4586,1 53636U 22104BA  24234.30369782  .00023880  00000-0  15116-2 0  9992,2 53636  53.2149 242.0682 0001595  78.3120 281.8051 15.08883449109852,6917.748,95.435,540.716,538.509,0.0
